NORAD_CAT_ID,OBJECT_NAME,OBJECT_TYPE,EPOCH,MEAN_MOTION,ECCENTRICITY,INCLINATION,RA_OF_ASC_NODE,ARG_OF_PERICENTER,MEAN_ANOMALY,BSTAR,MEAN_MOTION_DOT,MEAN_MOTION_DDOT,TLE_LINE0,TLE_LINE1,TLE_LINE2,SEMIMAJOR_AXIS,PERIOD,APOGEE,PERIGEE,DECAYED
53161.0,STARLINK-4055,PAYLOAD,2024-03-09 01:40:20,15.08841788,0.0001665,53.2161,203.9968,82.9754,277.1428,0.0001367,1.888e-05,0.0,0 STARLINK-4055,1 53161U 22083AF  24069.06967649  .00001888  00000-0  13670-3 0  9994,2 53161  53.2161 203.9968 0001665  82.9754 277.1428 15.08841788 91692,6917.875,95.437,540.892,538.588,0.0
53161.0,STARLINK-4055,PAYLOAD,2024-03-09 08:01:52,15.08845503,0.0001973,53.217,202.8126,97.9089,262.2128,-0.00011371,-2.098e-05,0.0,0 STARLINK-4055,1 53161U 22083AF  24069.33463509 -.00002098  00000-0 -11371-3 0  9992,2 53161  53.2170 202.8126 0001973  97.9089 262.2128 15.08845503 91102,6917.864,95.437,541.093,538.364,0.0
53161.0,STARLINK-4055,PAYLOAD,2024-03-10 01:31:07,15.08839798,0.0001822,53.2173,199.5412,89.9543,270.1657,8.5528e-05,1.073e-05,0.0,0 STARLINK-4055,1 53161U 22083AF  24070.06327855  .00001073  00000-0  85528-4 0  9993,2 53161  53.2173 199.5412 0001822  89.9543 270.1657 15.08839798 91849,6917.881,95.438,541.006,538.486,0.0
53161.0,STARLINK-4055,PAYLOAD,2024-03-10 17:24:59,15.08834317,0.0002037,53.2127,196.5659,83.3635,276.7588,5.7391e-05,6.25e-06,0.0,0 STARLINK-4055,1 53161U 22083AF  24070.72568435  .00000625  00000-0  57391-4 0  9996,2 53161  53.2127 196.5659 0002037  83.3635 276.7588 15.08834317 91945,6917.898,95.438,541.172,538.354,0.0
53161.0,STARLINK-4055,PAYLOAD,2024-03-11 12:29:36,15.08844569,0.0001688,53.218,193.001,93.8889,266.2296,0.00016815,2.389e-05,0.0,0 STARLINK-4055,1 53161U 22083AF  24071.52055921  .00002389  00000-0  16815-3 0  9990,2 53161  53.2180 193.0010 0001688  93.8889 266.2296 15.08844569 92069,6917.866,95.437,540.899,538.564,0.0
53161.0,STARLINK-4055,PAYLOAD,2024-03-12 13:55:46,15.08839923,0.0001179,53.2163,188.2425,73.5044,286.6078,0.00014881,2.081e-05,0.0,0 STARLINK-4055,1 53161U 22083AF  24072.58040226  .00002081  00000-0  14881-3 0  9999,2 53161  53.2163 188.2425 0001179  73.5044 286.6078 15.08839923 92229,6917.881,95.438,540.561,538.93,0.0
53161.0,STARLINK-4055,PAYLOAD,2024-03-13 13:46:33,15.08845905,0.0001345,53.2169,183.782,83.7685,276.346,0.00013357,1.839e-05,0.0,0 STARLINK-4055,1 53161U 22083AF  24073.57399926  .00001839  00000-0  13357-3 0  9990,2 53161  53.2169 183.7820 0001345  83.7685 276.3460 15.08845905 91747,6917.862,95.437,540.658,538.797,0.0
53161.0,STARLINK-4055,PAYLOAD,2024-03-14 12:01:57,15.08846164,0.0001359,53.2173,179.6176,88.4829,271.6319,0.00014947,2.092e-05,0.0,0 STARLINK-4055,1 53161U 22083AF  24074.50135718  .00002092  00000-0  14947-3 0  9999,2 53161  53.2173 179.6176 0001359  88.4829 271.6319 15.08846164 92512,6917.862,95.437,540.667,538.786,0.0
53161.0,STARLINK-4055,PAYLOAD,2024-03-15 11:52:44,15.0883657,0.0001287,53.2188,175.1574,89.6042,270.5097,1.4569e-06,-2.65e-06,0.0,0 STARLINK-4055,1 53161U 22083AF  24075.49496412 -.00000265  00000-0  14569-5 0  9992,2 53161  53.2188 175.1574 0001287  89.6042 270.5097 15.08836570 92668,6917.891,95.438,540.646,538.866,0.0
53161.0,STARLINK-4055,PAYLOAD,2024-03-16 11:43:31,15.08837398,0.0001399,53.2177,170.6963,85.0816,275.0335,6.4767e-05,7.43e-06,0.0,0 STARLINK-4055,1 53161U 22083AF  24076.48856308  .00000743  00000-0  64767-4 0  9990,2 53161  53.2177 170.6963 0001399  85.0816 275.0335 15.08837398 92182,6917.888,95.438,540.721,538.786,0.0
53161.0,STARLINK-4055,PAYLOAD,2024-03-17 11:34:19,15.0882954,0.0001472,53.217,166.2356,98.6977,261.4182,5.238e-05,5.46e-06,0.0,0 STARLINK-4055,1 53161U 22083AF  24077.48217294  .00000546  00000-0  52380-4 0  9995,2 53161  53.2170 166.2356 0001472  98.6977 261.4182 15.08829540 92967,6917.912,95.438,540.796,538.759,0.0
53161.0,STARLINK-4055,PAYLOAD,2024-03-17 13:09:42,15.08832011,0.0001412,53.2171,165.9402,92.4473,267.6681,6.8538e-05,8.03e-06,0.0,0 STARLINK-4055,1 53161U 22083AF  24077.54841149  .00000803  00000-0  68538-4 0  9992,2 53161  53.2171 165.9402 0001412  92.4473 267.6681 15.08832011 92344,6917.905,95.438,540.747,538.793,0.0
53161.0,STARLINK-4055,PAYLOAD,2024-03-18 11:25:06,15.08841333,0.0001515,53.2176,161.7775,92.4541,267.6624,0.00010518,1.386e-05,0.0,0 STARLINK-4055,1 53161U 22083AF  24078.47576715  .00001386  00000-0  10518-3 0  9990,2 53161  53.2176 161.7775 0001515  92.4541 267.6624 15.08841333 93116,6917.876,95.437,540.789,538.693,0.0
53161.0,STARLINK-4055,PAYLOAD,2024-03-18 14:35:52,15.08847639,0.0001546,53.2177,161.1811,88.5004,271.6165,0.00015973,2.256e-05,0.0,0 STARLINK-4055,1 53161U 22083AF  24078.60824188  .00002256  00000-0  15973-3 0  9992,2 53161  53.2177 161.1811 0001546  88.5004 271.6165 15.08847639 92508,6917.857,95.437,540.792,538.653,0.0
53161.0,STARLINK-4055,PAYLOAD,2024-03-19 11:15:53,15.08846508,0.0001533,53.2166,157.3182,83.733,276.3837,0.00013337,1.836e-05,0.0,0 STARLINK-4055,1 53161U 22083AF  24079.46936508  .00001836  00000-0  13337-3 0  9992,2 53161  53.2166 157.3182 0001533  83.7330 276.3837 15.08846508 92635,6917.86,95.437,540.786,538.665,0.0
53161.0,STARLINK-4055,PAYLOAD,2024-03-19 12:51:16,15.08850018,0.0001581,53.2175,157.0213,81.0978,279.0193,0.00016691,2.37e-05,0.0,0 STARLINK-4055,1 53161U 22083AF  24079.53560255  .00002370  00000-0  16691-3 0  9992,2 53161  53.2175 157.0213 0001581  81.0978 279.0193 15.08850018 93276,6917.85,95.437,540.808,538.621,0.0
53161.0,STARLINK-4055,PAYLOAD,2024-03-20 09:31:17,15.08846669,0.0001554,53.218,153.1519,90.4032,269.7138,-9.5115e-06,-4.39e-06,0.0,0 STARLINK-4055,1 53161U 22083AF  24080.39672711 -.00000439  00000-0 -95115-5 0  9995,2 53161  53.2180 153.1519 0001554  90.4032 269.7138 15.08846669 93400,6917.86,95.437,540.8,538.65,0.0
53161.0,STARLINK-4055,PAYLOAD,2024-03-20 11:06:40,15.08848097,0.0001579,53.2179,152.8545,89.3577,270.7596,5.8915e-06,-1.94e-06,0.0,0 STARLINK-4055,1 53161U 22083AF  24080.46296625 -.00000194  00000-0  58915-5 0  9993,2 53161  53.2179 152.8545 0001579  89.3577 270.7596 15.08848097 92788,6917.856,95.437,540.813,538.628,0.0
53161.0,STARLINK-4055,PAYLOAD,2024-03-20 22:14:22,15.08848187,0.0001681,53.2177,150.7743,78.0077,282.1104,-2.6661e-05,-7.12e-06,0.0,0 STARLINK-4055,1 53161U 22083AF  24080.92664612 -.00000712  00000-0 -26661-4 0  9998,2 53161  53.2177 150.7743 0001681  78.0077 282.1104 15.08848187 92857,6917.855,95.437,540.883,538.557,0.0
53161.0,STARLINK-4055,PAYLOAD,2024-03-21 10:57:27,15.08849066,0.0001548,53.2173,148.3941,92.5498,267.5671,-1.1954e-05,-4.78e-06,0.0,0 STARLINK-4055,1 53161U 22083AF  24081.45656532 -.00000478  00000-0 -11954-4 0  9997,2 53161  53.2173 148.3941 0001548  92.5498 267.5671 15.08849066 93568,6917.853,95.437,540.789,538.647,0.0
53161.0,STARLINK-4055,PAYLOAD,2024-03-21 14:08:13,15.08848438,0.0001707,53.2163,147.799,97.394,262.7246,0.00011248,1.503e-05,0.0,0 STARLINK-4055,1 53161U 22083AF  24081.58904476  .00001503  00000-0  11248-3 0  9997,2 53161  53.2163 147.7990 0001707  97.3940 262.7246 15.08848438 92955,6917.855,95.437,540.9,538.539,0.0
53161.0,STARLINK-4055,PAYLOAD,2024-03-22 13:59:00,15.08851108,0.0001871,53.2167,143.3359,99.0899,261.0305,0.00047443,7.273e-05,0.0,0 STARLINK-4055,1 53161U 22083AF  24082.58264104  .00007273  00000-0  47443-3 0  9991,2 53161  53.2167 143.3359 0001871  99.0899 261.0305 15.08851108 93108,6917.846,95.437,541.006,538.417,0.0
53161.0,STARLINK-4055,PAYLOAD,2024-03-23 10:39:02,15.0882694,0.000182,53.2165,139.4703,107.7259,252.3931,-0.00020516,-3.551e-05,0.0,0 STARLINK-4055,1 53161U 22083AF  24083.44377374 -.00003551  00000-0 -20516-3 0  9990,2 53161  53.2165 139.4703 0001820 107.7259 252.3931 15.08826940 93863,6917.92,95.438,541.044,538.526,0.0
53161.0,STARLINK-4055,PAYLOAD,2024-03-23 20:11:20,15.08842182,0.0001631,53.2169,137.6887,98.1679,261.9498,0.00015864,2.238e-05,0.0,0 STARLINK-4055,1 53161U 22083AF  24083.84121017  .00002238  00000-0  15864-3 0  9994,2 53161  53.2169 137.6887 0001631  98.1679 261.9498 15.08842182 93926,6917.874,95.437,540.867,538.61,0.0
53161.0,STARLINK-4055,PAYLOAD,2024-03-24 10:29:48,15.0886185,0.0001937,53.2176,135.0187,112.938,247.1817,0.00096997,0.00015192,0.0,0 STARLINK-4055,1 53161U 22083AF  24084.43736694  .00015192  00000-0  96997-3 0  9992,2 53161  53.2176 135.0187 0001937 112.9380 247.1817 15.08861850 94017,6917.814,95.436,541.019,538.339,0.0
53161.0,STARLINK-4055,PAYLOAD,2024-03-24 20:02:07,15.08863381,0.0001491,53.2158,133.2288,89.1603,270.956,0.0013909,0.00021932,0.0,0 STARLINK-4055,1 53161U 22083AF  24084.83480736  .00021932  00000-0  13909-2 0  9999,2 53161  53.2158 133.2288 0001491  89.1603 270.9560 15.08863381 94073,6917.809,95.436,540.705,538.642,0.0
53161.0,STARLINK-4055,PAYLOAD,2024-03-25 11:56:00,15.08814822,0.0001695,53.2158,130.2583,79.1677,280.9506,0.0022457,0.00035609,0.0,0 STARLINK-4055,1 53161U 22083AF  24085.49722450  .00035609  00000-0  22457-2 0  9998,2 53161  53.2158 130.2583 0001695  79.1677 280.9506 15.08814822 94172,6917.957,95.439,540.995,538.65,0.0
53161.0,STARLINK-4055,PAYLOAD,2024-03-25 19:52:56,15.0882144,0.0001806,53.216,128.7688,79.8165,280.3031,0.0016653,0.00026301,0.0,0 STARLINK-4055,1 53161U 22083AF  24085.82843087  .00026301  00000-0  16653-2 0  9995,2 53161  53.2160 128.7688 0001806  79.8165 280.3031 15.08821440 94223,6917.937,95.439,541.051,538.553,0.0
53161.0,STARLINK-4055,PAYLOAD,2024-03-26 11:46:48,15.0884002,0.0001752,53.2151,125.7958,79.767,280.3519,0.0011607,0.00018233,0.0,0 STARLINK-4055,1 53161U 22083AF  24086.49083394  .00018233  00000-0  11607-2 0  9995,2 53161  53.2151 125.7958 0001752  79.7670 280.3519 15.08840020 94327,6917.88,95.438,540.957,538.533,0.0
53161.0,STARLINK-4055,PAYLOAD,2024-03-26 19:43:43,15.08851361,0.0001737,53.215,124.3087,81.718,278.4009,0.0010598,0.00016624,0.0,0 STARLINK-4055,1 53161U 22083AF  24086.82203177  .00016624  00000-0  10598-2 0  9995,2 53161  53.2150 124.3087 0001737  81.7180 278.4009 15.08851361 93743,6917.846,95.437,540.912,538.509,0.0
